[
    {
        "Altitude(m)": 558185.6354525047,
        "Argument of Periapsis(deg)": 0.033114955553567506,
        "Eccentricity": 0.0,
        "Inclination(deg)": 53.0,
        "Latitude(deg)": -17.762235213868653,
        "Longitude(deg)": 57.121488586286084,
        "Mean Anomaly(deg)": -22.269235662112067,
        "RAAN(deg)": 174.9507168426401,
        "Satellite Name": "Starlink Shell 1 787",
        "Satellite Number": 787,
        "Semi-Major Axis(m)": 6931778.249405717,
        "Time(s)": 950
    },
    {
        "Altitude(m)": 558036.3528382077,
        "Argument of Periapsis(deg)": 0.03346353403307874,
        "Eccentricity": 0.0,
        "Inclination(deg)": 53.0,
        "Latitude(deg)": -17.273481039045816,
        "Longitude(deg)": 57.49374043366778,
        "Mean Anomaly(deg)": -21.64240445855529,
        "RAAN(deg)": 174.9501980725626,
        "Satellite Name": "Starlink Shell 1 787",
        "Satellite Number": 787,
        "Semi-Major Axis(m)": 6931778.249405717,
        "Time(s)": 960
    },
    {
        "Altitude(m)": 557888.8276525596,
        "Argument of Periapsis(deg)": 0.03381211251258998,
        "Eccentricity": 0.0,
        "Inclination(deg)": 53.0,
        "Latitude(deg)": -16.783841979202496,
        "Longitude(deg)": 57.86382947941236,
        "Mean Anomaly(deg)": -21.01557325499862,
        "RAAN(deg)": 174.94967930248515,
        "Satellite Name": "Starlink Shell 1 787",
        "Satellite Number": 787,
        "Semi-Major Axis(m)": 6931778.249405717,
        "Time(s)": 970
    },
    {
        "Altitude(m)": 557743.1090847163,
        "Argument of Periapsis(deg)": 0.034160690992101214,
        "Eccentricity": 0.0,
        "Inclination(deg)": 53.0,
        "Latitude(deg)": -16.29334821984593,
        "Longitude(deg)": 58.23182801255275,
        "Mean Anomaly(deg)": -20.388742051441877,
        "RAAN(deg)": 174.94916053240766,
        "Satellite Name": "Starlink Shell 1 787",
        "Satellite Number": 787,
        "Semi-Major Axis(m)": 6931778.249405717,
        "Time(s)": 980
    },
    {
        "Altitude(m)": 557599.2453704249,
        "Argument of Periapsis(deg)": 0.034509269471612446,
        "Eccentricity": 0.0,
        "Inclination(deg)": 53.0,
        "Latitude(deg)": -15.802029486386663,
        "Longitude(deg)": 58.597807958029755,
        "Mean Anomaly(deg)": -19.76191084788523,
        "RAAN(deg)": 174.94864176233023,
        "Satellite Name": "Starlink Shell 1 787",
        "Satellite Number": 787,
        "Semi-Major Axis(m)": 6931778.249405717,
        "Time(s)": 990
    }
]